{"type":"FeatureCollection","features":[{"type":"Feature","geometry":{"type":"Polygon","coordinates":[[[2.416339717281352,48.84923827340741],[2.4622646327720443,48.84253748930953],[2.4626974524261254,48.81905707868419],[2.4384502049151475,48.818235158647155],[2.4006819201840903,48.82909612370583],[2.363949262797974,48.81631512383787],[2.3318953139887446,48.81701271305569],[2.2790573794463054,48.83248998498127],[2.2242245702250814,48.85351605360998],[2.2317363464837308,48.869069480870024],[2.258472586492028,48.88038999464371],[2.277487004862913,48.87797011937597],[2.319884458526643,48.90045886733916],[2.385151006972503,48.902007792208785],[2.4139437894422056,48.87082877761242],[2.416339717281352,48.84923827340741]]]},"properties":{"code":"75","nom":"Paris"}},{"type":"Feature","geometry":{"type":"Polygon","coordinates":[[[2.571660318442073,48.69201409164602],[2.5688040564289847,48.707222628077005],[2.585211502726328,48.727239448802735],[2.5854093346308815,48.74171196622536],[2.607003437584154,48.77439762384403],[2.5922804883088015,48.8074366758147],[2.592517689219438,48.82587446702569],[2.568103791053846,48.86594445401019],[2.5870340052947016,48.893952959629644],[2.592341722831452,48.925023616614034],[2.58930360616549,48.953762745338985],[2.5717986314833206,48.96867398285449],[2.580314053373102,48.99158952144207],[2.55306064485419,49.0098171174389],[2.547651942231624,49.02344674891678],[2.587858904546535,49.04990157898905],[2.572031573014404,49.06149045194861],[2.5905242793946224,49.079654846732424],[2.633272965218076,49.10837621896302],[2.673154178752123,49.090859401094306],[2.7067286108537023,49.06571610231719],[2.753551034147009,49.06074104171223],[2.7870683167938073,49.075272380356054],[2.7918669791571764,49.090224385649144],[2.845152480122472,49.0846582975852],[2.8560893422319023,49.07003394285967],[2.8949540105299616,49.077060509386286],[2.9015078805206906,49.08537404257291],[2.974612129302612,49.07483790651457],[3.0085155429257675,49.09151015780461],[3.0483639955943445,49.086321770811566],[3.071884293834167,49.117554218816146],[3.1039032023368676,49.10783847337312],[3.1361260876735515,49.10736575572267],[3.16523032905892,49.09965085798759],[3.1535840813505853,49.08328424779814],[3.1818268776645002,49.060865198640144],[3.1682883590774806,49.01667270236993],[3.229176905886298,48.98841784600257],[3.2518351589230496,48.97236625695047],[3.2678460373508416,48.938331129104206],[3.3047494707754015,48.94876427894454],[3.3130758740800688,48.9212163651494],[3.3302994547269797,48.908706088642376],[3.3663472431751384,48.922836905893014],[3.3828132392962247,48.88874725594759],[3.380474508825688,48.874761432854626],[3.404630766733507,48.86387236235099],[3.452232416190477,48.856291455303484],[3.4607105852412756,48.83944139457446],[3.4851874436586847,48.851908494372864],[3.484964362562067,48.82500976544345],[3.4321733352035433,48.81226134369876],[3.442913938608982,48.78618495446326],[3.409426927872636,48.78384005486431],[3.395834526122342,48.75925128896011],[3.4302049079731773,48.756874901226034],[3.4443842525897947,48.73668491350176],[3.4697275479340295,48.73786507384338],[3.4643028353269045,48.707377209765006],[3.4693877334848082,48.68643581459289],[3.4406134906014127,48.6636539025972],[3.460426313142606,48.65300999879329],[3.5174997752390147,48.64336703334491],[3.5190711976645597,48.633474580141225],[3.5556137492385345,48.62028467657408],[3.5038535314822115,48.6048091344709],[3.4975003134409723,48.58995747369995],[3.4655161591022283,48.57048567886506],[3.479607557239746,48.54471109171053],[3.4591902801865113,48.53074024476159],[3.4234423807070566,48.533562692399734],[3.4053980660358945,48.528012199625785],[3.4348599344666386,48.49751072268098],[3.388359827890943,48.480408300039215],[3.4064783284931712,48.4524502326185],[3.3919598867876517,48.424322153455364],[3.422082006455869,48.413341906536964],[3.4147915595010967,48.390273038820325],[3.3833187883415756,48.39970860491622],[3.367217075047188,48.39431654152582],[3.3651592673815314,48.37228068710627],[3.305153213312036,48.37287323488759],[3.282397556791885,48.37751802756359],[3.254382220567969,48.36502185965591],[3.232843707551971,48.37032930740775],[3.2018573040530143,48.36401635870226],[3.1398687617633554,48.37259875797597],[3.0988849903520745,48.35782222270563],[3.0495188960927044,48.36012035556557],[3.036760677253472,48.34009779475704],[3.041677936242915,48.329416667963116],[3.015901008416285,48.3079017396547],[3.043627253848888,48.27202235761227],[3.0051556578134635,48.20767000034546],[2.97446503722382,48.20555285255294],[2.970958045601008,48.194187673485665],[2.9347486048838207,48.17882262621194],[2.936314411640624,48.1633917441478],[2.868032820232008,48.156433549044586],[2.8208799789852854,48.12966447731962],[2.7978126665223124,48.14068615599144],[2.7989445730680167,48.16827665010273],[2.7414685556447598,48.15977844911796],[2.7551983055667155,48.145653478490786],[2.720460981753342,48.136910896310766],[2.7065470696044738,48.12481924580505],[2.6634205012712795,48.12220248073456],[2.6397338993017683,48.1388605931352],[2.602684217604197,48.13148889808521],[2.570562642830993,48.14081569138084],[2.537506945660482,48.14033979679666],[2.521518685158647,48.127300215727736],[2.4903153051303115,48.12660259180864],[2.460116447222927,48.13685254342551],[2.4832376593500602,48.164518230078265],[2.5063270278885916,48.15643757520199],[2.5093663344872534,48.18250926382449],[2.523126693688509,48.19489310648136],[2.5068882455094257,48.22598658432872],[2.4690901704508605,48.255272821570486],[2.452518016092004,48.25003251288878],[2.4237635277023717,48.260297326582666],[2.4210918870276967,48.298668261849855],[2.402664267131608,48.320719459421184],[2.4255796854392964,48.33725297618987],[2.4298322285044196,48.362015783117755],[2.46921772462766,48.37645004114287],[2.5216135704659886,48.404932172570405],[2.527461927309532,48.4157156753841],[2.50765489240467,48.429543907057045],[2.501886311020425,48.48476669856557],[2.51535674995086,48.50615222035927],[2.49952467433224,48.52523904800114],[2.5198364478476627,48.5625203315344],[2.5182770284128475,48.5832577878723],[2.543776514406961,48.60384977114558],[2.5258433805130944,48.61310782203827],[2.53361600680745,48.65733138882678],[2.544818846722052,48.671181815072785],[2.585373689362236,48.67939805001862],[2.571660318442073,48.69201409164602]]]},"properties":{"code":"77","nom":"Seine-et-Marne"}},{"type":"Feature","geometry":{"type":"Polygon","coordinates":[[[2.200591009269503,48.908679329890454],[2.168378401515456,48.8950779335488],[2.1528691414227357,48.87333985214219],[2.1458733412695294,48.83602003450691],[2.1515778037276103,48.81702039834037],[2.1766744128227886,48.81380509870073],[2.1829398770998654,48.7972269838604],[2.2026350450801604,48.798403323102875],[2.2265593271545225,48.77610203162176],[2.2027216574242257,48.771358218371454],[2.1820096609166937,48.757573640869396],[2.150675004182983,48.753712115449396],[2.1349798974354277,48.737139276053675],[2.097999010182745,48.73436502883337],[2.1103326928214208,48.714381141190366],[2.0820789629661083,48.68544592956703],[2.0456590375105823,48.687570739614664],[2.0178852678544255,48.64224227868909],[2.0602445240702307,48.6175941143781],[2.034508920154608,48.603498748150024],[2.035741451799255,48.58886342431221],[2.0172296562124665,48.56946047379915],[2.01757406029729,48.55759738742344],[1.9787832030076382,48.553654167165384],[1.9378872442847588,48.562931040710545],[1.9340684230182927,48.54810690246857],[1.9674261909808515,48.53307136184394],[1.9460308303104135,48.515862147920664],[1.933377950693106,48.482146422725215],[1.9149145708790403,48.473854949789406],[1.9221489648373706,48.457600286064135],[1.9064022701801788,48.44014576962788],[1.8716851573650342,48.43978475842447],[1.84486306037181,48.4493607065379],[1.8321369890615689,48.467581442678565],[1.8032057888939028,48.472565678495286],[1.7768442507697113,48.50931096191216],[1.775751488475668,48.52770729661422],[1.7872450519775867,48.55374456486673],[1.7653297161980415,48.56937104099974],[1.7092527874670105,48.57802434626235],[1.7019890546581085,48.58499862181419],[1.714895681919355,48.61439494545783],[1.6662188615195896,48.613706715891],[1.651574528306872,48.63812870428749],[1.603118482168126,48.66241796207503],[1.6117708691618606,48.68947111646258],[1.579545829918285,48.70181187348942],[1.6263993499269267,48.748094297484094],[1.5875947031508344,48.773602302755286],[1.5756742260519878,48.7905067944881],[1.5912030850964909,48.814869639400584],[1.5772685877162862,48.84436076548629],[1.581598875031263,48.85499897015231],[1.5462315883376268,48.87242890235984],[1.5595052783343866,48.88205164409549],[1.5385208308731109,48.90668492167043],[1.5386150005667363,48.92179645733065],[1.5073440226070087,48.927598989147334],[1.5015238197988665,48.94105360615515],[1.4974212515808907,48.97955944476306],[1.477085024550759,48.978790316157344],[1.4770779834042216,49.01679764336922],[1.4577625828067995,49.026291046220386],[1.4474328265726297,49.04518805211747],[1.4607983669865394,49.0627440580796],[1.4848834480593345,49.05154791492779],[1.5380423840651944,49.072342033316],[1.5570756944651978,49.06962240086733],[1.6017185942276444,49.08450261108525],[1.6087960706299218,49.07789415353795],[1.6455144472390726,49.08139804743355],[1.6736891270071164,49.07815117318431],[1.6937298328462178,49.056950122989164],[1.7234571618642331,49.04497657550691],[1.7596265233069017,49.06332287848212],[1.7942998843096216,49.058190360814926],[1.7965466896679247,49.072232197890884],[1.8300339442296272,49.0754853922552],[1.8653368480003796,49.05724562325274],[1.8513341928477542,49.03336315145782],[1.869115159435854,49.01823530435844],[1.8912257485830386,49.03927754626276],[1.9124689805854491,49.041836823035794],[1.9378021652564328,49.02177632637227],[1.9918815520004978,49.0210106286694],[2.02340791218018,48.99794435218925],[2.084914920835882,49.014678714910325],[2.127119946587909,49.009678482150534],[2.1207126230627655,48.99330122057494],[2.154931342389435,48.985723515837904],[2.175542212320485,48.97240487622723],[2.17723226175586,48.953657461253236],[2.20585834678071,48.94974074221645],[2.200591009269503,48.908679329890454]]]},"properties":{"code":"78","nom":"Yvelines"}},{"type":"Feature","geometry":{"type":"Polygon","coordinates":[[[2.2265593271545225,48.77610203162176],[2.2329784335715455,48.76619570460062],[2.2649238096212745,48.76144968716666],[2.314443701257945,48.7304256109259],[2.3207180175230313,48.74875623508064],[2.3546837090965482,48.73856509020945],[2.3707067322771356,48.720175922532974],[2.4141357629081504,48.71799549181414],[2.454965343815732,48.72228146116879],[2.5035365695581286,48.735211482171685],[2.5157508385679277,48.72893861768784],[2.531076672373326,48.69978570765512],[2.5538667808447078,48.68832401270366],[2.571660318442073,48.69201409164602],[2.585373689362236,48.67939805001862],[2.544818846722052,48.671181815072785],[2.53361600680745,48.65733138882678],[2.5258433805130944,48.61310782203827],[2.543776514406961,48.60384977114558],[2.5182770284128475,48.5832577878723],[2.5198364478476627,48.5625203315344],[2.49952467433224,48.52523904800114],[2.51535674995086,48.50615222035927],[2.501886311020425,48.48476669856557],[2.50765489240467,48.429543907057045],[2.527461927309532,48.4157156753841],[2.5216135704659886,48.404932172570405],[2.46921772462766,48.37645004114287],[2.4298322285044196,48.362015783117755],[2.4255796854392964,48.33725297618987],[2.402664267131608,48.320719459421184],[2.3633118415981462,48.309600437933916],[2.3277014892177683,48.33305786731142],[2.312590884489921,48.330802741661444],[2.2954192430595457,48.308226039086286],[2.238046845675527,48.316373357629175],[2.223911064819703,48.3364180215832],[2.2022493722769347,48.344596745334684],[2.1806941723291215,48.31168043030938],[2.155707101498331,48.30449560310474],[2.081503651069427,48.29360440985604],[2.052708364877964,48.29547390947902],[2.0438104559378143,48.2864493366448],[1.9940847180593788,48.286585877943075],[1.9752916566344318,48.28719843612737],[1.9592272366957604,48.308689574530625],[1.9799848326906437,48.31848007972407],[1.9699915637784469,48.33969146951863],[1.9868210109251592,48.36214189229105],[1.9734600276085819,48.38883055198841],[1.9765777946992387,48.39938447447991],[1.9258935288275238,48.412738189076535],[1.940657409608177,48.42520626181189],[1.9221489648373706,48.457600286064135],[1.9149145708790403,48.473854949789406],[1.933377950693106,48.482146422725215],[1.9460308303104135,48.515862147920664],[1.9674261909808515,48.53307136184394],[1.9340684230182927,48.54810690246857],[1.9378872442847588,48.562931040710545],[1.9787832030076382,48.553654167165384],[2.01757406029729,48.55759738742344],[2.0172296562124665,48.56946047379915],[2.035741451799255,48.58886342431221],[2.034508920154608,48.603498748150024],[2.0602445240702307,48.6175941143781],[2.0178852678544255,48.64224227868909],[2.0456590375105823,48.687570739614664],[2.0820789629661083,48.68544592956703],[2.1103326928214208,48.714381141190366],[2.097999010182745,48.73436502883337],[2.1349798974354277,48.737139276053675],[2.150675004182983,48.753712115449396],[2.1820096609166937,48.757573640869396],[2.2027216574242257,48.771358218371454],[2.2265593271545225,48.77610203162176]]]},"properties":{"code":"91","nom":"Essonne"}},{"type":"Feature","geometry":{"type":"Polygon","coordinates":[[[2.2909735732251613,48.950966788077196],[2.3269700232985637,48.94536493100808],[2.3363515897545497,48.93235062393098],[2.3198186459199985,48.91593565477114],[2.319884458526643,48.90045886733916],[2.277487004862913,48.87797011937597],[2.258472586492028,48.88038999464371],[2.2317363464837308,48.869069480870024],[2.2242245702250814,48.85351605360998],[2.2790573794463054,48.83248998498127],[2.3318953139887446,48.81701271305569],[2.318696288355829,48.78799561087479],[2.3258120232145614,48.78191098020334],[2.3087015923862384,48.75541506900493],[2.3207180175230313,48.74875623508064],[2.314443701257945,48.7304256109259],[2.2649238096212745,48.76144968716666],[2.2329784335715455,48.76619570460062],[2.2265593271545225,48.77610203162176],[2.2026350450801604,48.798403323102875],[2.1829398770998654,48.7972269838604],[2.1766744128227886,48.81380509870073],[2.1515778037276103,48.81702039834037],[2.1458733412695294,48.83602003450691],[2.1528691414227357,48.87333985214219],[2.168378401515456,48.8950779335488],[2.200591009269503,48.908679329890454],[2.2687243837962194,48.94657952905197],[2.2909735732251613,48.950966788077196]]]},"properties":{"code":"92","nom":"Hauts-de-Seine"}},{"type":"Feature","geometry":{"type":"Polygon","coordinates":[[[2.55306064485419,49.0098171174389],[2.580314053373102,48.99158952144207],[2.5717986314833206,48.96867398285449],[2.58930360616549,48.953762745338985],[2.592341722831452,48.925023616614034],[2.5870340052947016,48.893952959629644],[2.568103791053846,48.86594445401019],[2.592517689219438,48.82587446702569],[2.5922804883088015,48.8074366758147],[2.533679919545506,48.84510353911671],[2.4815340793391782,48.86140985004899],[2.416339717281352,48.84923827340741],[2.4139437894422056,48.87082877761242],[2.385151006972503,48.902007792208785],[2.319884458526643,48.90045886733916],[2.3198186459199985,48.91593565477114],[2.3363515897545497,48.93235062393098],[2.3269700232985637,48.94536493100808],[2.2909735732251613,48.950966788077196],[2.2989593311869005,48.96630137751687],[2.333312950123798,48.95538233563509],[2.344102277288972,48.96823838528235],[2.3845399290016545,48.970997610129494],[2.407383854100793,48.95612202818259],[2.4594899596115933,48.95504632683333],[2.4673283497589793,48.96433475385722],[2.5147706684191236,48.9822601449233],[2.5322426864128684,49.005223756710706],[2.55306064485419,49.0098171174389]]]},"properties":{"code":"93","nom":"Seine-Saint-Denis"}},{"type":"Feature","geometry":{"type":"Polygon","coordinates":[[[2.3318953139887446,48.81701271305569],[2.363949262797974,48.81631512383787],[2.4006819201840903,48.82909612370583],[2.4384502049151475,48.818235158647155],[2.4626974524261254,48.81905707868419],[2.4622646327720443,48.84253748930953],[2.416339717281352,48.84923827340741],[2.4815340793391782,48.86140985004899],[2.533679919545506,48.84510353911671],[2.5922804883088015,48.8074366758147],[2.607003437584154,48.77439762384403],[2.5854093346308815,48.74171196622536],[2.585211502726328,48.727239448802735],[2.5688040564289847,48.707222628077005],[2.571660318442073,48.69201409164602],[2.5538667808447078,48.68832401270366],[2.531076672373326,48.69978570765512],[2.5157508385679277,48.72893861768784],[2.5035365695581286,48.735211482171685],[2.454965343815732,48.72228146116879],[2.4141357629081504,48.71799549181414],[2.3707067322771356,48.720175922532974],[2.3546837090965482,48.73856509020945],[2.3207180175230313,48.74875623508064],[2.3087015923862384,48.75541506900493],[2.3258120232145614,48.78191098020334],[2.318696288355829,48.78799561087479],[2.3318953139887446,48.81701271305569]]]},"properties":{"code":"94","nom":"Val-de-Marne"}},{"type":"Feature","geometry":{"type":"Polygon","coordinates":[[[2.5905242793946224,49.079654846732424],[2.572031573014404,49.06149045194861],[2.587858904546535,49.04990157898905],[2.547651942231624,49.02344674891678],[2.55306064485419,49.0098171174389],[2.5322426864128684,49.005223756710706],[2.5147706684191236,48.9822601449233],[2.4673283497589793,48.96433475385722],[2.4594899596115933,48.95504632683333],[2.407383854100793,48.95612202818259],[2.3845399290016545,48.970997610129494],[2.344102277288972,48.96823838528235],[2.333312950123798,48.95538233563509],[2.2989593311869005,48.96630137751687],[2.2909735732251613,48.950966788077196],[2.2687243837962194,48.94657952905197],[2.200591009269503,48.908679329890454],[2.20585834678071,48.94974074221645],[2.17723226175586,48.953657461253236],[2.175542212320485,48.97240487622723],[2.154931342389435,48.985723515837904],[2.1207126230627655,48.99330122057494],[2.127119946587909,49.009678482150534],[2.084914920835882,49.014678714910325],[2.02340791218018,48.99794435218925],[1.9918815520004978,49.0210106286694],[1.9378021652564328,49.02177632637227],[1.9124689805854491,49.041836823035794],[1.8912257485830386,49.03927754626276],[1.869115159435854,49.01823530435844],[1.8513341928477542,49.03336315145782],[1.8653368480003796,49.05724562325274],[1.8300339442296272,49.0754853922552],[1.7965466896679247,49.072232197890884],[1.7942998843096216,49.058190360814926],[1.7596265233069017,49.06332287848212],[1.7234571618642331,49.04497657550691],[1.6937298328462178,49.056950122989164],[1.6736891270071164,49.07815117318431],[1.6455144472390726,49.08139804743355],[1.6087960706299218,49.07789415353795],[1.6350518648476458,49.11430020855939],[1.655777439712795,49.13016217033744],[1.6643738026115165,49.15336752369717],[1.674090204376027,49.210248479159524],[1.7043642065965865,49.232201775163404],[1.7341091564710822,49.221278789282294],[1.7421373979981678,49.18015527802457],[1.755165127607803,49.17454501384096],[1.7954686863275515,49.18525912523885],[1.845548847714221,49.169897638882595],[1.877040859056052,49.17144524902654],[1.8852389528169067,49.16263786454188],[1.9314802344723212,49.17417045483985],[1.9607171449401366,49.173518197205695],[1.973760882151743,49.18378113635129],[2.0006083248213287,49.175708039448175],[2.0749104023995684,49.20868708172066],[2.0968812642737786,49.18975715797898],[2.1327389034606554,49.191378260554046],[2.1819500283812623,49.17367773782481],[2.218650036331584,49.180682600571025],[2.252488213818398,49.15288152246086],[2.2864129770481765,49.15992057659305],[2.3109290446865427,49.18640655833579],[2.3462570508145517,49.161815824563625],[2.3912888696248515,49.14934773205012],[2.4131026213629148,49.152351151856486],[2.471584849664169,49.13543134509872],[2.5032579551258722,49.11758406300134],[2.4899309091229616,49.10636117791936],[2.5581713639343153,49.09838623642425],[2.5905242793946224,49.079654846732424]]]},"properties":{"code":"95","nom":"Val-d'Oise"}}]}
